[Satellite]
VERSION=1.1
NAME=CP7 (DAVE)
NICKNAME=CP7 (DAVE)
TLE1=1 43615U 18070C   19317.06854621  .00003213  00000-0  85576-4 0  9992
TLE2=2 43615  93.0387  64.5804 0018532  96.0712 264.2654 15.38073988 65059
STATUS=0
